{
  "type": "FeatureCollection",
  "name": "chakaria_boundary",
  "crs": {
    "type": "name",
    "properties": {
      "name": "urn:ogc:def:crs:OGC:1.3:CRS84"
    }
  },
  "features": [
    {
      "type": "Feature",
      "properties": {
        "name": "Chakaria study area",
        "note": "PROVISIONAL: convex hull of 30 sites + ~2.5 km buffer. Replace with D:\\\\A_letter_to_Science\\\\chakaria_boundary.geojson"
      },
      "geometry": {
        "type": "Polygon",
        "coordinates": [
          [
            [
              91.9916164569593,
              21.46082947447514
            ],
            [
              91.98679267829424,
              21.453169491967024
            ],
            [
              91.98144081038545,
              21.44896119631953
            ],
            [
              91.9751002499795,
              21.44648137049736
            ],
            [
              91.96831338912922,
              21.445942146825136
            ],
            [
              91.9616607978715,
              21.447389652240506
            ],
            [
              91.95397535275447,
              21.452172758552035
            ],
            [
              91.94973874666977,
              21.457502243635314
            ],
            [
              91.94722534519428,
              21.463829569720858
            ],
            [
              91.9393539695462,
              21.67198700157487
            ],
            [
              91.94011724629404,
              21.678785129225364
            ],
            [
              91.9417167769256,
              21.683065812551725
            ],
            [
              91.94559850130842,
              21.68869869340986
            ],
            [
              91.95095001606299,
              21.692959963264954
            ],
            [
              91.9551100841612,
              21.69485114844892
            ],
            [
              92.04854214147514,
              21.716847600617697
            ],
            [
              92.05314255258426,
              21.71745007977881
            ],
            [
              92.06003824689431,
              21.716623211310385
            ],
            [
              92.0663830844986,
              21.71379879150151
            ],
            [
              92.0700244478863,
              21.710923511307996
            ],
            [
              92.07302323730327,
              21.707383168733454
            ],
            [
              92.07606415629522,
              21.701139201791996
            ],
            [
              92.07702103218308,
              21.691955725690494
            ],
            [
              92.07369795465851,
              21.675028057211563
            ],
            [
              91.9916164569593,
              21.46082947447514
            ]
          ]
        ]
      }
    }
  ]
}